OBJECT_NAME,OBJECT_ID,EPOCH,MEAN_MOTION,ECCENTRICITY,INCLINATION,RA_OF_ASC_NODE,ARG_OF_PERICENTER,MEAN_ANOMALY,EPHEMERIS_TYPE,CLASSIFICATION_TYPE,NORAD_CAT_ID,ELEMENT_SET_NO,REV_AT_EPOCH,BSTAR,MEAN_MOTION_DOT,MEAN_MOTION_DDOT
GEOSCAN 3 (RS92S3),2025-155T,2026-06-08T12:34:54.331680,15.35107936,.000542,97.4534,129.3021,189.0622,171.0524,0,U,64893,999,7952,.52437E-3,.17812E-3,0
INNOSAT 3 (RS92S0),2025-155U,2026-06-08T11:54:08.695008,15.43217848,.0004913,97.4485,130.7879,173.7217,186.4093,0,U,64894,999,7962,.76175E-3,.33844E-3,0
KNACKSAT-2,1998-067XZ,2026-06-07T19:16:13.947744,15.59121118,.0010362,51.6303,341.6515,174.2130,185.8984,0,U,67683,999,1881,.61257743E-3,.48726E-3,0
