GEOSCAN 3 (RS92S3)      
1 64893U 25155T   26159.52423995  .00017812  00000+0  52437-3 0  9992
2 64893  97.4534 129.3021 0005420 189.0622 171.0524 15.35107936 79524
INNOSAT 3 (RS92S0)      
1 64894U 25155U   26159.49593397  .00033844  00000+0  76175-3 0  9991
2 64894  97.4485 130.7879 0004913 173.7217 186.4093 15.43217848 79628
KNACKSAT-2              
1 67683U 98067XZ  26158.80293921  .00048726  00000+0  61258-3 0  9997
2 67683  51.6303 341.6515 0010362 174.2130 185.8984 15.59121118 18810
